NORAD_CAT_ID,OBJECT_NAME,OBJECT_TYPE,EPOCH,MEAN_MOTION,ECCENTRICITY,INCLINATION,RA_OF_ASC_NODE,ARG_OF_PERICENTER,MEAN_ANOMALY,BSTAR,MEAN_MOTION_DOT,MEAN_MOTION_DDOT,TLE_LINE0,TLE_LINE1,TLE_LINE2,SEMIMAJOR_AXIS,PERIOD,APOGEE,PERIGEE,DECAYED
53798.0,STARLINK-4712,PAYLOAD,2022-10-11 06:00:00,15.73183051,9.65e-05,53.2157,117.6779,105.4847,120.6382,-0.00034649,-0.00048928,0.0,0 STARLINK-4712,1 53798U 22111AB  22284.25001157 -.00048928  00000-0 -34649-3 0  9990,2 53798  53.2157 117.6779 0000965 105.4847 120.6382 15.73183051  4677,6727.943,91.534,350.458,349.159,0.0
53798.0,STARLINK-4712,PAYLOAD,2022-10-11 14:00:01,15.73154376,0.0001293,53.2172,116.0315,109.8214,205.1366,0.00059375,0.00083376,0.0,0 STARLINK-4712,1 53798U 22111AB  22284.58334491  .00083376  00000-0  59375-3 0  9993,2 53798  53.2172 116.0315 0001293 109.8214 205.1366 15.73154376  1300,6728.025,91.536,350.76,349.02,0.0
53798.0,STARLINK-4712,PAYLOAD,2022-10-11 22:00:00,15.73167277,8.590000000000001e-05,53.2146,114.3797,92.0921,311.7553,0.00063852,0.00089828,0.0,0 STARLINK-4712,1 53798U 22111AB  22284.91667824  .00089828  00000-0  63852-3 0  9992,2 53798  53.2146 114.3797 0000859  92.0921 311.7553 15.73167277  4771,6727.988,91.535,350.431,349.276,0.0
53798.0,STARLINK-4712,PAYLOAD,2022-10-12 14:00:01,15.73287775,0.0001137999999999,53.216,111.0806,105.2902,116.44,-0.001175,-0.00162976,0.0,0 STARLINK-4712,1 53798U 22111AB  22285.58334491 -.00162976  00000-0 -11750-2 0  9994,2 53798  53.2160 111.0806 0001138 105.2902 116.4400 15.73287775  4888,6727.645,91.528,350.276,348.744,0.0
53798.0,STARLINK-4712,PAYLOAD,2022-10-12 22:00:00,15.73161761,0.0001082,53.2171,109.4352,89.5331,221.1598,0.00047352,0.00066251,0.0,0 STARLINK-4712,1 53798U 22111AB  22285.91667824  .00066251  00000-0  47352-3 0  9995,2 53798  53.2171 109.4352 0001082  89.5331 221.1598 15.73161761  1307,6728.004,91.535,350.597,349.141,0.0
53798.0,STARLINK-4712,PAYLOAD,2022-10-13 14:00:01,15.73200549,0.0001030999999999,53.2174,106.1345,100.8712,27.6711,4.8933e-05,6.253e-05,0.0,0 STARLINK-4712,1 53798U 22111AB  22286.58334491  .00006253  00000-0  48933-4 0  9993,2 53798  53.2174 106.1345 0001031 100.8712  27.6711 15.73200549  1304,6727.894,91.533,350.452,349.065,0.0
53798.0,STARLINK-4712,PAYLOAD,2022-10-13 20:00:01,15.73205643,0.0001066999999999,53.2175,104.8995,95.9584,9.3467,-1.4521e-05,-2.657e-05,0.0,0 STARLINK-4712,1 53798U 22111AB  22286.83335648 -.00002657  00000-0 -14521-4 0  9998,2 53798  53.2175 104.8995 0001067  95.9584   9.3467 15.73205643  5074,6727.879,91.533,350.462,349.026,0.0
53798.0,STARLINK-4712,PAYLOAD,2022-10-13 22:00:00,15.73201536,0.000101,53.2175,104.4874,95.7384,121.7363,3.9543e-05,4.934e-05,0.0,0 STARLINK-4712,1 53798U 22111AB  22286.91667824  .00004934  00000-0  39543-4 0  9990,2 53798  53.2175 104.4874 0001010  95.7384 121.7363 15.73201536  1303,6727.891,91.533,350.435,349.076,0.0
53798.0,STARLINK-4712,PAYLOAD,2022-10-14 14:00:01,15.73183347,0.0001048,53.2169,101.1857,92.6353,302.7183,0.00024259,0.00033537,0.0,0 STARLINK-4712,1 53798U 22111AB  22287.58334491  .00033537  00000-0  24259-3 0  9993,2 53798  53.2169 101.1857 0001048  92.6353 302.7183 15.73183347  1304,6727.943,91.534,350.51300000000015,349.103,0.0
53798.0,STARLINK-4712,PAYLOAD,2022-10-14 20:00:01,15.73205725,0.0001079,53.2174,99.9509,86.287,285.7555,-1.928e-05,-3.325e-05,0.0,0 STARLINK-4712,1 53798U 22111AB  22287.83334491 -.00003325  00000-0 -19280-4 0  9994,2 53798  53.2174  99.9509 0001079  86.2870 285.7555 15.73205725  1303,6727.879,91.533,350.47,349.01800000000014,0.0
53798.0,STARLINK-4712,PAYLOAD,2022-10-15 06:00:00,15.73203946,8.98e-05,53.2176,97.8872,103.8582,109.3539,5.026e-06,8.6e-07,0.0,0 STARLINK-4712,1 53798U 22111AB  22288.25001157  .00000086  00000-0  50260-5 0  9994,2 53798  53.2176  97.8872 0000898 103.8582 109.3539 15.73203946  5309,6727.884,91.533,350.353,349.145,0.0
53798.0,STARLINK-4712,PAYLOAD,2022-10-15 14:00:01,15.73266624,0.0001286,53.2154,96.2331,77.8447,224.4668,-0.00073735,-0.00103136,0.0,0 STARLINK-4712,1 53798U 22111AB  22288.58334491 -.00103136  00000-0 -73735-3 0  9992,2 53798  53.2154  96.2331 0001286  77.8447 224.4668 15.73266624  5359,6727.705,91.529,350.435,348.705,0.0
53798.0,STARLINK-4712,PAYLOAD,2022-10-15 22:00:01,15.73392852,9.78e-05,53.2165,94.5886,66.396,324.9955,-0.0047957,-0.0063063,0.0,0 STARLINK-4712,1 53798U 22111AB  22288.91668981 -.00630630  00000-0 -47957-2 0  9993,2 53798  53.2165  94.5886 0000978  66.3960 324.9955 15.73392852  5401,6727.345,91.522,349.86800000000005,348.552,0.0
53798.0,STARLINK-4712,PAYLOAD,2022-10-16 06:00:00,15.73171334,9.19e-05,53.2158,92.9347,70.3638,49.8101,0.00047678,0.00066743,0.0,0 STARLINK-4712,1 53798U 22111AB  22289.25001157  .00066743  00000-0  47678-3 0  9994,2 53798  53.2158  92.9347 0000919  70.3638  49.8101 15.73171334  5450,6727.977,91.535,350.46,349.224,0.0
53798.0,STARLINK-4712,PAYLOAD,2022-10-16 14:00:01,15.73234803,0.0001046,53.2151,91.2847,65.57,143.52700000000004,-0.00029947,-0.00042498,0.0,0 STARLINK-4712,1 53798U 22111AB  22289.58334491 -.00042498  00000-0 -29947-3 0  9992,2 53798  53.2151  91.2847 0001046  65.5700 143.5270 15.73234803  1308,6727.795999999999,91.531,350.365,348.957,0.0
53798.0,STARLINK-4712,PAYLOAD,2022-10-16 22:00:00,15.73135924,0.0001139,53.2151,89.6368,49.7092,248.306,0.0006302,0.00088517,0.0,0 STARLINK-4712,1 53798U 22111AB  22289.91667824  .00088517  00000-0  63020-3 0  9998,2 53798  53.2151  89.6368 0001139  49.7092 248.3060 15.73135924  5565,6728.078,91.537,350.709,349.177,0.0
53798.0,STARLINK-4712,PAYLOAD,2022-10-17 06:00:00,15.73160021,0.0001036,53.216,87.9858,61.0582,325.8572,0.00019857,0.00027291,0.0,0 STARLINK-4712,1 53798U 22111AB  22290.25001157  .00027291  00000-0  19857-3 0  9999,2 53798  53.2160  87.9858 0001036  61.0582 325.8572 15.73160021  5618,6728.009,91.536,350.571,349.177,0.0
53798.0,STARLINK-4712,PAYLOAD,2022-10-17 14:00:01,15.73238558,0.000121,53.2154,86.3366,56.6137,59.2344,7.7797e-05,0.00010329,0.0,0 STARLINK-4712,1 53798U 22111AB  22290.58334491  .00010329  00000-0  77797-4 0  9997,2 53798  53.2154  86.3366 0001210  56.6137  59.2344 15.73238558  5669,6727.785,91.531,350.464,348.836,0.0
53798.0,STARLINK-4712,PAYLOAD,2022-10-17 22:00:00,15.73216691,0.0001359,53.2147,84.6881,46.3166,158.4789,-0.00034025,-0.00048134,0.0,0 STARLINK-4712,1 53798U 22111AB  22290.91667824 -.00048134  00000-0 -34025-3 0  9996,2 53798  53.2147  84.6881 0001359  46.3166 158.4789 15.73216691  1302,6727.848000000001,91.532,350.62699999999984,348.798,0.0
53798.0,STARLINK-4712,PAYLOAD,2022-10-18 08:00:01,15.73097857,0.0001406999999999,53.2147,82.6241,61.1651,344.646,0.0011437,0.00162317,0.0,0 STARLINK-4712,1 53798U 22111AB  22291.33334491  .00162317  00000-0  11437-2 0  9993,2 53798  53.2147  82.6241 0001407  61.1651 344.6460 15.73097857  5780,6728.186,91.539,350.99800000000016,349.105,0.0
53798.0,STARLINK-4712,PAYLOAD,2022-10-18 14:00:01,15.73151938,0.0001587,53.215,81.3884,58.4286,323.9676,0.00025515,0.00035266,0.0,0 STARLINK-4712,1 53798U 22111AB  22291.58334491  .00035266  00000-0  25515-3 0  9995,2 53798  53.2150  81.3884 0001587  58.4286 323.9676 15.73151938  5820,6728.031999999997,91.536,350.965,348.829,0.0
53798.0,STARLINK-4712,PAYLOAD,2022-10-18 22:00:00,15.73203295,0.0001402,53.2172,79.7438,61.8659,49.6222,1.863e-05,1.995e-05,0.0,0 STARLINK-4712,1 53798U 22111AB  22291.91667824  .00001995  00000-0  18630-4 0  9994,2 53798  53.2172  79.7438 0001402  61.8659  49.6222 15.73203295  1300,6727.886,91.533,350.694,348.80800000000005,0.0
53798.0,STARLINK-4712,PAYLOAD,2022-10-19 06:00:00,15.73203951,0.0001521999999999,53.2151,78.0883,53.1451,147.0714,0.00078708,0.00111336,0.0,0 STARLINK-4712,1 53798U 22111AB  22292.25001157  .00111336  00000-0  78708-3 0  9995,2 53798  53.2151  78.0883 0001522  53.1451 147.0714 15.73203951  5931,6727.884,91.533,350.773,348.725,0.0
53798.0,STARLINK-4712,PAYLOAD,2022-10-19 14:00:01,15.73316571,0.0001528,53.2151,76.4398,46.2728,242.9249,-0.00074026,-0.00103757,0.0,0 STARLINK-4712,1 53798U 22111AB  22292.58334491 -.00103757  00000-0 -74026-3 0  9990,2 53798  53.2151  76.4398 0001528  46.2728 242.9249 15.73316571  1308,6727.563,91.526,350.456,348.4,0.0
53798.0,STARLINK-4712,PAYLOAD,2022-10-19 22:00:00,15.73228054,0.0001495,53.2161,74.7936,40.314,337.9156,0.00024535,0.00033994,0.0,0 STARLINK-4712,1 53798U 22111AB  22292.91667824  .00033994  00000-0  24535-3 0  9999,2 53798  53.2161  74.7936 0001495  40.3140 337.9156 15.73228054  6039,6727.815,91.532,350.686,348.6740000000001,0.0
53798.0,STARLINK-4712,PAYLOAD,2022-10-20 14:00:01,15.73257145,0.0001520999999999,53.2149,71.4907,37.7727,158.3923,-0.00046547,-0.000656,0.0,0 STARLINK-4712,1 53798U 22111AB  22293.58334491 -.00065600  00000-0 -46547-3 0  9992,2 53798  53.2149  71.4907 0001521  37.7727 158.3923 15.73257145  1303,6727.732,91.53,350.621,348.574,0.0
53798.0,STARLINK-4712,PAYLOAD,2022-10-20 22:00:00,15.73234144,0.0001674,53.2155,69.844,31.0861,254.0415,-0.00045204,-0.00063678,0.0,0 STARLINK-4712,1 53798U 22111AB  22293.91667824 -.00063678  00000-0 -45204-3 0  9990,2 53798  53.2155  69.8440 0001674  31.0861 254.0415 15.73234144  1302,6727.7980000000025,91.531,350.789,348.537,0.0
53798.0,STARLINK-4712,PAYLOAD,2022-10-21 14:00:01,15.73226748,0.0001902,53.216,66.543,40.344,62.6411,-0.00018647,-0.00026739,0.0,0 STARLINK-4712,1 53798U 22111AB  22294.58334491 -.00026739  00000-0 -18647-3 0  9993,2 53798  53.2160  66.5430 0001902  40.3440  62.6411 15.73226748  1301,6727.819,91.532,350.964,348.404,0.0
53798.0,STARLINK-4712,PAYLOAD,2022-10-21 22:00:00,15.73241644,0.0001962,53.2147,64.8925,35.8368,156.0909,-0.00039899,-0.00056347,0.0,0 STARLINK-4712,1 53798U 22111AB  22294.91667824 -.00056347  00000-0 -39899-3 0  9999,2 53798  53.2147  64.8925 0001962  35.8368 156.0909 15.73241644  1302,6727.776,91.531,350.961,348.321,0.0
